[{"OBJECT_NAME":"STARLINK-4513","OBJECT_ID":"2022-101X","EPOCH":"2026-02-13T16:45:52.239456","MEAN_MOTION":15.08837304,"ECCENTRICITY":0.00012745,"INCLINATION":53.217,"RA_OF_ASC_NODE":171.822,"ARG_OF_PERICENTER":85.4795,"MEAN_ANOMALY":274.6343,"EPHEMERIS_TYPE":0,"CLASSIFICATION_TYPE":"U","NORAD_CAT_ID":53548,"ELEMENT_SET_NO":999,"REV_AT_EPOCH":19268,"BSTAR":-2.17011e-6,"MEAN_MOTION_DOT":-3.22e-6,"MEAN_MOTION_DDOT":0},{"OBJECT_NAME":"STARLINK-4514","OBJECT_ID":"2022-101AA","EPOCH":"2026-02-13T16:51:10.093824","MEAN_MOTION":15.08837275,"ECCENTRICITY":0.00010289,"INCLINATION":53.2164,"RA_OF_ASC_NODE":171.805,"ARG_OF_PERICENTER":98.8773,"MEAN_ANOMALY":261.2336,"EPHEMERIS_TYPE":0,"CLASSIFICATION_TYPE":"U","NORAD_CAT_ID":53551,"ELEMENT_SET_NO":999,"REV_AT_EPOCH":19334,"BSTAR":7.882865e-6,"MEAN_MOTION_DOT":-1.62e-6,"MEAN_MOTION_DDOT":0},{"OBJECT_NAME":"STARLINK-4495","OBJECT_ID":"2022-101AB","EPOCH":"2026-02-13T13:19:12.117504","MEAN_MOTION":15.08837734,"ECCENTRICITY":0.00012154,"INCLINATION":53.2174,"RA_OF_ASC_NODE":172.4677,"ARG_OF_PERICENTER":82.9174,"MEAN_ANOMALY":277.1957,"EPHEMERIS_TYPE":0,"CLASSIFICATION_TYPE":"U","NORAD_CAT_ID":53552,"ELEMENT_SET_NO":999,"REV_AT_EPOCH":19331,"BSTAR":3.2356e-8,"MEAN_MOTION_DOT":-2.87e-6,"MEAN_MOTION_DDOT":0},{"OBJECT_NAME":"STARLINK-4501","OBJECT_ID":"2022-101AC","EPOCH":"2026-02-13T13:08:32.241696","MEAN_MOTION":15.0887566,"ECCENTRICITY":6.553e-5,"INCLINATION":53.2163,"RA_OF_ASC_NODE":172.3719,"ARG_OF_PERICENTER":64.3428,"MEAN_ANOMALY":295.7632,"EPHEMERIS_TYPE":0,"CLASSIFICATION_TYPE":"U","NORAD_CAT_ID":53553,"ELEMENT_SET_NO":999,"REV_AT_EPOCH":19332,"BSTAR":6.8415681e-5,"MEAN_MOTION_DOT":8.02e-6,"MEAN_MOTION_DDOT":0},{"OBJECT_NAME":"STARLINK-4506","OBJECT_ID":"2022-101AD","EPOCH":"2026-02-13T16:20:45.294720","MEAN_MOTION":15.08853141,"ECCENTRICITY":0.00013997,"INCLINATION":53.2172,"RA_OF_ASC_NODE":171.9073,"ARG_OF_PERICENTER":86.3024,"MEAN_ANOMALY":273.8128,"EPHEMERIS_TYPE":0,"CLASSIFICATION_TYPE":"U","NORAD_CAT_ID":53554,"ELEMENT_SET_NO":999,"REV_AT_EPOCH":19268,"BSTAR":-5.4045511e-5,"MEAN_MOTION_DOT":-1.148e-5,"MEAN_MOTION_DDOT":0},{"OBJECT_NAME":"STARLINK-4504","OBJECT_ID":"2022-101AE","EPOCH":"2026-02-13T13:24:30.098880","MEAN_MOTION":15.08838123,"ECCENTRICITY":0.00012227,"INCLINATION":53.2161,"RA_OF_ASC_NODE":172.4497,"ARG_OF_PERICENTER":85.1319,"MEAN_ANOMALY":274.9812,"EPHEMERIS_TYPE":0,"CLASSIFICATION_TYPE":"U","NORAD_CAT_ID":53555,"ELEMENT_SET_NO":999,"REV_AT_EPOCH":19332,"BSTAR":-1.6144163e-5,"MEAN_MOTION_DOT":-5.45e-6,"MEAN_MOTION_DDOT":0},{"OBJECT_NAME":"STARLINK-4505","OBJECT_ID":"2022-101AF","EPOCH":"2026-02-13T16:08:46.823424","MEAN_MOTION":15.08837697,"ECCENTRICITY":0.00013829,"INCLINATION":53.2169,"RA_OF_ASC_NODE":171.9371,"ARG_OF_PERICENTER":74.4982,"MEAN_ANOMALY":285.6163,"EPHEMERIS_TYPE":0,"CLASSIFICATION_TYPE":"U","NORAD_CAT_ID":53556,"ELEMENT_SET_NO":999,"REV_AT_EPOCH":19268,"BSTAR":5.2293623e-5,"MEAN_MOTION_DOT":5.44e-6,"MEAN_MOTION_DDOT":0},{"OBJECT_NAME":"STARLINK-4502","OBJECT_ID":"2022-101AG","EPOCH":"2026-02-13T13:13:54.299424","MEAN_MOTION":15.08837871,"ECCENTRICITY":0.00013177,"INCLINATION":53.2176,"RA_OF_ASC_NODE":172.4836,"ARG_OF_PERICENTER":85.715,"MEAN_ANOMALY":274.3993,"EPHEMERIS_TYPE":0,"CLASSIFICATION_TYPE":"U","NORAD_CAT_ID":53557,"ELEMENT_SET_NO":999,"REV_AT_EPOCH":19331,"BSTAR":-3.841356e-6,"MEAN_MOTION_DOT":-3.49e-6,"MEAN_MOTION_DDOT":0},{"OBJECT_NAME":"STARLINK-4494","OBJECT_ID":"2022-101AH","EPOCH":"2026-02-13T16:12:02.377728","MEAN_MOTION":15.08819228,"ECCENTRICITY":0.00014077,"INCLINATION":53.2168,"RA_OF_ASC_NODE":166.6488,"ARG_OF_PERICENTER":106.6185,"MEAN_ANOMALY":253.4962,"EPHEMERIS_TYPE":0,"CLASSIFICATION_TYPE":"U","NORAD_CAT_ID":53558,"ELEMENT_SET_NO":999,"REV_AT_EPOCH":19341,"BSTAR":0.00027849174,"MEAN_MOTION_DOT":4.145e-5,"MEAN_MOTION_DDOT":0},{"OBJECT_NAME":"STARLINK-4508","OBJECT_ID":"2022-101AJ","EPOCH":"2026-02-13T14:38:41.369856","MEAN_MOTION":15.0884148,"ECCENTRICITY":0.00013308,"INCLINATION":53.2175,"RA_OF_ASC_NODE":172.2167,"ARG_OF_PERICENTER":77.6039,"MEAN_ANOMALY":282.5102,"EPHEMERIS_TYPE":0,"CLASSIFICATION_TYPE":"U","NORAD_CAT_ID":53559,"ELEMENT_SET_NO":999,"REV_AT_EPOCH":19267,"BSTAR":5.1802928e-5,"MEAN_MOTION_DOT":5.37e-6,"MEAN_MOTION_DDOT":0},{"OBJECT_NAME":"STARLINK-4564","OBJECT_ID":"2022-101AK","EPOCH":"2026-02-13T17:13:44.215104","MEAN_MOTION":15.08833788,"ECCENTRICITY":0.00011673,"INCLINATION":53.2169,"RA_OF_ASC_NODE":161.9199,"ARG_OF_PERICENTER":90.9692,"MEAN_ANOMALY":269.1434,"EPHEMERIS_TYPE":0,"CLASSIFICATION_TYPE":"U","NORAD_CAT_ID":53560,"ELEMENT_SET_NO":999,"REV_AT_EPOCH":19282,"BSTAR":-7.1836805e-5,"MEAN_MOTION_DOT":-1.431e-5,"MEAN_MOTION_DDOT":0},{"OBJECT_NAME":"STARLINK-4563","OBJECT_ID":"2022-101AL","EPOCH":"2026-02-13T16:03:28.587168","MEAN_MOTION":15.08841783,"ECCENTRICITY":0.00010028,"INCLINATION":53.2166,"RA_OF_ASC_NODE":171.9516,"ARG_OF_PERICENTER":86.8503,"MEAN_ANOMALY":273.2603,"EPHEMERIS_TYPE":0,"CLASSIFICATION_TYPE":"U","NORAD_CAT_ID":53561,"ELEMENT_SET_NO":999,"REV_AT_EPOCH":19268,"BSTAR":6.4586051e-5,"MEAN_MOTION_DOT":7.4e-6,"MEAN_MOTION_DDOT":0},{"OBJECT_NAME":"STARLINK-4565","OBJECT_ID":"2022-101AM","EPOCH":"2026-02-13T13:57:38.933568","MEAN_MOTION":15.08836254,"ECCENTRICITY":0.0001411,"INCLINATION":53.2172,"RA_OF_ASC_NODE":162.4896,"ARG_OF_PERICENTER":91.761,"MEAN_ANOMALY":268.3543,"EPHEMERIS_TYPE":0,"CLASSIFICATION_TYPE":"U","NORAD_CAT_ID":53562,"ELEMENT_SET_NO":999,"REV_AT_EPOCH":19346,"BSTAR":7.9786365e-5,"MEAN_MOTION_DOT":9.82e-6,"MEAN_MOTION_DDOT":0},{"OBJECT_NAME":"STARLINK-4561","OBJECT_ID":"2022-101AN","EPOCH":"2026-02-13T14:08:15.458784","MEAN_MOTION":15.08841124,"ECCENTRICITY":0.00013765,"INCLINATION":53.2176,"RA_OF_ASC_NODE":162.5377,"ARG_OF_PERICENTER":71.2867,"MEAN_ANOMALY":288.8274,"EPHEMERIS_TYPE":0,"CLASSIFICATION_TYPE":"U","NORAD_CAT_ID":53563,"ELEMENT_SET_NO":999,"REV_AT_EPOCH":19280,"BSTAR":3.124398e-5,"MEAN_MOTION_DOT":2.09e-6,"MEAN_MOTION_DDOT":0},{"OBJECT_NAME":"STARLINK-4577","OBJECT_ID":"2022-101AP","EPOCH":"2026-02-13T15:22:25.152960","MEAN_MOTION":15.08839769,"ECCENTRICITY":0.00013546,"INCLINATION":53.2178,"RA_OF_ASC_NODE":162.1456,"ARG_OF_PERICENTER":96.6382,"MEAN_ANOMALY":263.4765,"EPHEMERIS_TYPE":0,"CLASSIFICATION_TYPE":"U","NORAD_CAT_ID":53564,"ELEMENT_SET_NO":999,"REV_AT_EPOCH":19281,"BSTAR":5.8358506e-5,"MEAN_MOTION_DOT":6.41e-6,"MEAN_MOTION_DDOT":0},{"OBJECT_NAME":"STARLINK-4575","OBJECT_ID":"2022-101AQ","EPOCH":"2026-02-13T13:59:01.709088","MEAN_MOTION":15.08839453,"ECCENTRICITY":0.00016094,"INCLINATION":53.2184,"RA_OF_ASC_NODE":162.4968,"ARG_OF_PERICENTER":96.4364,"MEAN_ANOMALY":263.6812,"EPHEMERIS_TYPE":0,"CLASSIFICATION_TYPE":"U","NORAD_CAT_ID":53565,"ELEMENT_SET_NO":999,"REV_AT_EPOCH":19346,"BSTAR":9.293037e-6,"MEAN_MOTION_DOT":-1.4e-6,"MEAN_MOTION_DDOT":0}]
