STARLINK-4513           
1 53548U 22101X   26044.69852129 -.00000322  00000+0 -21701-5 0  9993
2 53548  53.2170 171.8220 0001274  85.4795 274.6343 15.08837304192682
STARLINK-4514           
1 53551U 22101AA  26044.70220016 -.00000162  00000+0  78829-5 0  9997
2 53551  53.2164 171.8050 0001028  98.8773 261.2336 15.08837275193346
STARLINK-4495           
1 53552U 22101AB  26044.55500136 -.00000287  00000+0  32356-7 0  9990
2 53552  53.2174 172.4677 0001215  82.9174 277.1957 15.08837734193319
STARLINK-4501           
1 53553U 22101AC  26044.54759539  .00000802  00000+0  68416-4 0  9998
2 53553  53.2163 172.3719 0000655  64.3428 295.7632 15.08875660193324
STARLINK-4506           
1 53554U 22101AD  26044.68107980 -.00001148  00000+0 -54046-4 0  9991
2 53554  53.2172 171.9073 0001399  86.3024 273.8128 15.08853141192680
STARLINK-4504           
1 53555U 22101AE  26044.55868170 -.00000545  00000+0 -16144-4 0  9990
2 53555  53.2161 172.4497 0001222  85.1319 274.9812 15.08838123193321
STARLINK-4505           
1 53556U 22101AF  26044.67276416  .00000544  00000+0  52294-4 0  9993
2 53556  53.2169 171.9371 0001382  74.4982 285.6163 15.08837697192680
STARLINK-4502           
1 53557U 22101AG  26044.55132291 -.00000349  00000+0 -38414-5 0  9997
2 53557  53.2176 172.4836 0001317  85.7150 274.3993 15.08837871193312
STARLINK-4494           
1 53558U 22101AH  26044.67502752  .00004145  00000+0  27849-3 0  9998
2 53558  53.2168 166.6488 0001407 106.6185 253.4962 15.08819228193414
STARLINK-4508           
1 53559U 22101AJ  26044.61020104  .00000537  00000+0  51803-4 0  9998
2 53559  53.2175 172.2167 0001330  77.6039 282.5102 15.08841480192671
STARLINK-4564           
1 53560U 22101AK  26044.71787286 -.00001431  00000+0 -71837-4 0  9997
2 53560  53.2169 161.9199 0001167  90.9692 269.1434 15.08833788192825
STARLINK-4563           
1 53561U 22101AL  26044.66908087  .00000740  00000+0  64586-4 0  9999
2 53561  53.2166 171.9516 0001002  86.8503 273.2603 15.08841783192682
STARLINK-4565           
1 53562U 22101AM  26044.58170062  .00000982  00000+0  79786-4 0  9991
2 53562  53.2172 162.4896 0001411  91.7610 268.3543 15.08836254193466
STARLINK-4561           
1 53563U 22101AN  26044.58906781  .00000209  00000+0  31244-4 0  9996
2 53563  53.2176 162.5377 0001376  71.2867 288.8274 15.08841124192800
STARLINK-4577           
1 53564U 22101AP  26044.64056890  .00000641  00000+0  58359-4 0  9997
2 53564  53.2178 162.1456 0001354  96.6382 263.4765 15.08839769192813
STARLINK-4575           
1 53565U 22101AQ  26044.58265867 -.00000140  00000+0  92930-5 0  9996
2 53565  53.2184 162.4968 0001609  96.4364 263.6812 15.08839453193460
